{
  "type": "FeatureCollection",
  "features": [
    {
      "type": "Feature",
      "properties": {
        "norad_id": 25590,
        "name": "COSMOS 2361",
        "group": "musson",
        "lat": 76.76767960296355,
        "lon": 5.449471903704685,
        "alt_km": 999.3355353170646,
        "timestamp": "2025-12-26T21:25:53.280109+00:00",
        "meta_object_name": "COSMOS 2361",
        "meta_object_id": "1998-076A",
        "meta_epoch": "2025-12-26T11:07:19.813728",
        "meta_mean_motion": 13.73219025,
        "meta_eccentricity": 0.00303747,
        "meta_inclination": 82.9346,
        "meta_ra_of_asc_node": 333.9358,
        "meta_arg_of_pericenter": 225.9178,
        "meta_mean_anomaly": 250.7401,
        "meta_ephemeris_type": 0,
        "meta_classification_type": "U",
        "meta_norad_cat_id": 25590,
        "meta_element_set_no": 999,
        "meta_rev_at_epoch": 35299,
        "meta_bstar": 6.4455721e-05,
        "meta_mean_motion_dot": 7.5e-07,
        "meta_mean_motion_ddot": 0,
        "tle_line1": "1 25590U 98076A   25360.46342377  .00000075  00000+0  64456-4 0  9993",
        "tle_line2": "2 25590  82.9346 333.9358 0030374 225.9178 250.7401 13.73219025352990"
      },
      "geometry": {
        "type": "Point",
        "coordinates": [
          5.449471903704685,
          76.76767960296355
        ]
      }
    },
    {
      "type": "Feature",
      "properties": {
        "norad_id": 26818,
        "name": "COSMOS 2378",
        "group": "musson",
        "lat": -18.841154035958233,
        "lon": 171.6576963502211,
        "alt_km": 969.3005767103987,
        "timestamp": "2025-12-26T21:25:53.280136+00:00",
        "meta_object_name": "COSMOS 2378",
        "meta_object_id": "2001-023A",
        "meta_epoch": "2025-12-26T10:31:21.747360",
        "meta_mean_motion": 13.74143091,
        "meta_eccentricity": 0.00332702,
        "meta_inclination": 82.9272,
        "meta_ra_of_asc_node": 349.5666,
        "meta_arg_of_pericenter": 166.5607,
        "meta_mean_anomaly": 304.8436,
        "meta_ephemeris_type": 0,
        "meta_classification_type": "U",
        "meta_norad_cat_id": 26818,
        "meta_element_set_no": 999,
        "meta_rev_at_epoch": 23111,
        "meta_bstar": 4.6609107e-05,
        "meta_mean_motion_dot": 5.9e-07,
        "meta_mean_motion_ddot": 0,
        "tle_line1": "1 26818U 01023A   25360.43844615  .00000059  00000+0  46609-4 0  9994",
        "tle_line2": "2 26818  82.9272 349.5666 0033270 166.5607 304.8436 13.74143091231111"
      },
      "geometry": {
        "type": "Point",
        "coordinates": [
          171.6576963502211,
          -18.841154035958233
        ]
      }
    },
    {
      "type": "Feature",
      "properties": {
        "norad_id": 27436,
        "name": "COSMOS 2389",
        "group": "musson",
        "lat": 79.61884377069903,
        "lon": 74.02638459624426,
        "alt_km": 964.9844991488199,
        "timestamp": "2025-12-26T21:25:53.280150+00:00",
        "meta_object_name": "COSMOS 2389",
        "meta_object_id": "2002-026A",
        "meta_epoch": "2025-12-26T14:49:00.287616",
        "meta_mean_motion": 13.75156114,
        "meta_eccentricity": 0.00470002,
        "meta_inclination": 82.9514,
        "meta_ra_of_asc_node": 296.712,
        "meta_arg_of_pericenter": 22.8396,
        "meta_mean_anomaly": 150.5906,
        "meta_ephemeris_type": 0,
        "meta_classification_type": "U",
        "meta_norad_cat_id": 27436,
        "meta_element_set_no": 999,
        "meta_rev_at_epoch": 18339,
        "meta_bstar": 6.5529441e-05,
        "meta_mean_motion_dot": 7.8e-07,
        "meta_mean_motion_ddot": 0,
        "tle_line1": "1 27436U 02026A   25360.61736444  .00000078  00000+0  65529-4 0  9998",
        "tle_line2": "2 27436  82.9514 296.7120 0047000  22.8396 150.5906 13.75156114183395"
      },
      "geometry": {
        "type": "Point",
        "coordinates": [
          74.02638459624426,
          79.61884377069903
        ]
      }
    },
    {
      "type": "Feature",
      "properties": {
        "norad_id": 27818,
        "name": "COSMOS 2398",
        "group": "musson",
        "lat": -82.84092294389657,
        "lon": 162.4871216066933,
        "alt_km": 1021.6901542747792,
        "timestamp": "2025-12-26T21:25:53.280161+00:00",
        "meta_object_name": "COSMOS 2398",
        "meta_object_id": "2003-023A",
        "meta_epoch": "2025-12-26T12:13:05.839968",
        "meta_mean_motion": 13.72387259,
        "meta_eccentricity": 0.00326818,
        "meta_inclination": 82.9482,
        "meta_ra_of_asc_node": 262.552,
        "meta_arg_of_pericenter": 75.1312,
        "meta_mean_anomaly": 98.2074,
        "meta_ephemeris_type": 0,
        "meta_classification_type": "U",
        "meta_norad_cat_id": 27818,
        "meta_element_set_no": 999,
        "meta_rev_at_epoch": 13005,
        "meta_bstar": 6.5388711e-05,
        "meta_mean_motion_dot": 7.5e-07,
        "meta_mean_motion_ddot": 0,
        "tle_line1": "1 27818U 03023A   25360.50909537  .00000075  00000+0  65389-4 0  9994",
        "tle_line2": "2 27818  82.9482 262.5520 0032681  75.1312  98.2074 13.72387259130058"
      },
      "geometry": {
        "type": "Point",
        "coordinates": [
          162.4871216066933,
          -82.84092294389657
        ]
      }
    },
    {
      "type": "Feature",
      "properties": {
        "norad_id": 28380,
        "name": "COSMOS 2407",
        "group": "musson",
        "lat": -55.392188370268435,
        "lon": -167.9033068624737,
        "alt_km": 974.9300803377173,
        "timestamp": "2025-12-26T21:25:53.280173+00:00",
        "meta_object_name": "COSMOS 2407",
        "meta_object_id": "2004-028A",
        "meta_epoch": "2025-12-26T15:00:27.865728",
        "meta_mean_motion": 13.76315217,
        "meta_eccentricity": 0.00396351,
        "meta_inclination": 82.9593,
        "meta_ra_of_asc_node": 202.6116,
        "meta_arg_of_pericenter": 16.8364,
        "meta_mean_anomaly": 42.2242,
        "meta_ephemeris_type": 0,
        "meta_classification_type": "U",
        "meta_norad_cat_id": 28380,
        "meta_element_set_no": 999,
        "meta_rev_at_epoch": 7614,
        "meta_bstar": 4.5374697e-05,
        "meta_mean_motion_dot": 6e-07,
        "meta_mean_motion_ddot": 0,
        "tle_line1": "1 28380U 04028A   25360.62532252  .00000060  00000+0  45375-4 0  9991",
        "tle_line2": "2 28380  82.9593 202.6116 0039635  16.8364  42.2242 13.76315217 76141"
      },
      "geometry": {
        "type": "Point",
        "coordinates": [
          -167.9033068624737,
          -55.392188370268435
        ]
      }
    },
    {
      "type": "Feature",
      "properties": {
        "norad_id": 28521,
        "name": "COSMOS 2414",
        "group": "musson",
        "lat": 75.62282768315598,
        "lon": -157.1714159259077,
        "alt_km": 900.9013276138294,
        "timestamp": "2025-12-26T21:25:53.280185+00:00",
        "meta_object_name": "COSMOS 2414",
        "meta_object_id": "2005-002A",
        "meta_epoch": "2025-12-26T10:40:47.254368",
        "meta_mean_motion": 13.87904644,
        "meta_eccentricity": 0.00414459,
        "meta_inclination": 82.9488,
        "meta_ra_of_asc_node": 174.2961,
        "meta_arg_of_pericenter": 101.7241,
        "meta_mean_anomaly": 258.8577,
        "meta_ephemeris_type": 0,
        "meta_classification_type": "U",
        "meta_norad_cat_id": 28521,
        "meta_element_set_no": 999,
        "meta_rev_at_epoch": 5985,
        "meta_bstar": 4.7553559e-05,
        "meta_mean_motion_dot": 7.3e-07,
        "meta_mean_motion_ddot": 0,
        "tle_line1": "1 28521U 05002A   25360.44499137  .00000073  00000+0  47554-4 0  9990",
        "tle_line2": "2 28521  82.9488 174.2961 0041445 101.7241 258.8577 13.87904644 59858"
      },
      "geometry": {
        "type": "Point",
        "coordinates": [
          -157.1714159259077,
          75.62282768315598
        ]
      }
    },
    {
      "type": "Feature",
      "properties": {
        "norad_id": 32052,
        "name": "COSMOS 2429",
        "group": "musson",
        "lat": -75.94455812083535,
        "lon": -56.603294138696576,
        "alt_km": 981.826205349892,
        "timestamp": "2025-12-26T21:25:53.280195+00:00",
        "meta_object_name": "COSMOS 2429",
        "meta_object_id": "2007-038A",
        "meta_epoch": "2025-12-26T11:19:46.862688",
        "meta_mean_motion": 13.75150735,
        "meta_eccentricity": 0.00384166,
        "meta_inclination": 82.9809,
        "meta_ra_of_asc_node": 333.185,
        "meta_arg_of_pericenter": 359.9977,
        "meta_mean_anomaly": 0.1172,
        "meta_ephemeris_type": 0,
        "meta_classification_type": "U",
        "meta_norad_cat_id": 32052,
        "meta_element_set_no": 999,
        "meta_rev_at_epoch": 91791,
        "meta_bstar": 5.6621046e-05,
        "meta_mean_motion_dot": 7e-07,
        "meta_mean_motion_ddot": 0,
        "tle_line1": "1 32052U 07038A   25360.47207017  .00000070  00000+0  56621-4 0  9994",
        "tle_line2": "2 32052  82.9809 333.1850 0038416 359.9977   0.1172 13.75150735917919"
      },
      "geometry": {
        "type": "Point",
        "coordinates": [
          -56.603294138696576,
          -75.94455812083535
        ]
      }
    },
    {
      "type": "Feature",
      "properties": {
        "norad_id": 35635,
        "name": "COSMOS 2454",
        "group": "musson",
        "lat": -50.40573280618751,
        "lon": -13.486715756355695,
        "alt_km": 949.8108920617979,
        "timestamp": "2025-12-26T21:25:53.280206+00:00",
        "meta_object_name": "COSMOS 2454",
        "meta_object_id": "2009-039A",
        "meta_epoch": "2025-12-26T13:45:06.902784",
        "meta_mean_motion": 13.89930347,
        "meta_eccentricity": 0.00199208,
        "meta_inclination": 82.956,
        "meta_ra_of_asc_node": 158.1587,
        "meta_arg_of_pericenter": 36.3895,
        "meta_mean_anomaly": 34.3382,
        "meta_ephemeris_type": 0,
        "meta_classification_type": "U",
        "meta_norad_cat_id": 35635,
        "meta_element_set_no": 999,
        "meta_rev_at_epoch": 83342,
        "meta_bstar": 5.6822101e-05,
        "meta_mean_motion_dot": 8.6e-07,
        "meta_mean_motion_ddot": 0,
        "tle_line1": "1 35635U 09039A   25360.57299656  .00000086  00000+0  56822-4 0  9998",
        "tle_line2": "2 35635  82.9560 158.1587 0019920  36.3895  34.3382 13.89930347833424"
      },
      "geometry": {
        "type": "Point",
        "coordinates": [
          -13.486715756355695,
          -50.40573280618751
        ]
      }
    },
    {
      "type": "Feature",
      "properties": {
        "norad_id": 36519,
        "name": "COSMOS 2463",
        "group": "musson",
        "lat": 60.223186750135284,
        "lon": 28.782835765160975,
        "alt_km": 1013.3396569344477,
        "timestamp": "2025-12-26T21:25:53.280216+00:00",
        "meta_object_name": "COSMOS 2463",
        "meta_object_id": "2010-017A",
        "meta_epoch": "2025-12-26T14:43:53.598720",
        "meta_mean_motion": 13.71650343,
        "meta_eccentricity": 0.0034842,
        "meta_inclination": 82.9603,
        "meta_ra_of_asc_node": 16.5163,
        "meta_arg_of_pericenter": 248.1364,
        "meta_mean_anomaly": 235.1487,
        "meta_ephemeris_type": 0,
        "meta_classification_type": "U",
        "meta_norad_cat_id": 36519,
        "meta_element_set_no": 999,
        "meta_rev_at_epoch": 78427,
        "meta_bstar": 3.8217363e-05,
        "meta_mean_motion_dot": 4.9e-07,
        "meta_mean_motion_ddot": 0,
        "tle_line1": "1 36519U 10017A   25360.61381480  .00000049  00000+0  38217-4 0  9997",
        "tle_line2": "2 36519  82.9603  16.5163 0034842 248.1364 235.1487 13.71650343784276"
      },
      "geometry": {
        "type": "Point",
        "coordinates": [
          28.782835765160975,
          60.223186750135284
        ]
      }
    }
  ]
}